{"fetched_at":"2026-03-29T16:36:15Z","count":15609,"tles":[{"name":"STARLINK-30853","line1":"1 58236U 23171G   26087.65251581  .00011157  00000+0  42466-3 0  9993","line2":"2 58236  43.0013 178.2268 0001298 261.6987  98.3717 15.26763708132635","category":"Starlink"}]}